{"fetched_at":"2026-07-18T17:29:57.623Z","source":"https://celestrak.org/NORAD/elements/gp.php?NAME=HULIANWANG&FORMAT=JSON","constellation":"guowang","records":[{"OBJECT_NAME":"HULIANWANG DIGUI-60","OBJECT_ID":"2025-174C","EPOCH":"2026-07-18T06:09:16.250976","CLASSIFICATION_TYPE":"U","MEAN_MOTION":13.24407159,"ECCENTRICITY":0.00018598,"INCLINATION":86.4936,"RA_OF_ASC_NODE":241.5097,"ARG_OF_PERICENTER":102.7382,"MEAN_ANOMALY":257.396,"EPHEMERIS_TYPE":0,"NORAD_CAT_ID":65166,"ELEMENT_SET_NO":999,"REV_AT_EPOCH":4490,"BSTAR":-0.000004824534,"MEAN_MOTION_DOT":1.3e-7,"MEAN_MOTION_DDOT":0},{"OBJECT_NAME":"HULIANWANG DIGUI-61","OBJECT_ID":"2025-174D","EPOCH":"2026-07-18T06:20:10.484736","CLASSIFICATION_TYPE":"U","MEAN_MOTION":13.24407784,"ECCENTRICITY":0.00016821,"INCLINATION":86.4944,"RA_OF_ASC_NODE":241.5408,"ARG_OF_PERICENTER":101.4983,"MEAN_ANOMALY":258.634,"EPHEMERIS_TYPE":0,"NORAD_CAT_ID":65167,"ELEMENT_SET_NO":999,"REV_AT_EPOCH":4490,"BSTAR":0.000001618726,"MEAN_MOTION_DOT":1.5e-7,"MEAN_MOTION_DDOT":0},{"OBJECT_NAME":"HULIANWANG DIGUI-62","OBJECT_ID":"2025-174E","EPOCH":"2026-07-18T06:30:52.759008","CLASSIFICATION_TYPE":"U","MEAN_MOTION":13.24409374,"ECCENTRICITY":0.00017806,"INCLINATION":86.4885,"RA_OF_ASC_NODE":241.3516,"ARG_OF_PERICENTER":105.595,"MEAN_ANOMALY":254.5381,"EPHEMERIS_TYPE":0,"NORAD_CAT_ID":65168,"ELEMENT_SET_NO":999,"REV_AT_EPOCH":4490,"BSTAR":0.000033260439,"MEAN_MOTION_DOT":2.9e-7,"MEAN_MOTION_DDOT":0},{"OBJECT_NAME":"HULIANWANG DIGUI-63","OBJECT_ID":"2025-174F","EPOCH":"2026-07-18T06:41:40.196544","CLASSIFICATION_TYPE":"U","MEAN_MOTION":13.24403656,"ECCENTRICITY":0.00016697,"INCLINATION":86.4938,"RA_OF_ASC_NODE":241.5269,"ARG_OF_PERICENTER":105.537,"MEAN_ANOMALY":254.5948,"EPHEMERIS_TYPE":0,"NORAD_CAT_ID":65169,"ELEMENT_SET_NO":999,"REV_AT_EPOCH":4490,"BSTAR":0.000048233343,"MEAN_MOTION_DOT":3.5e-7,"MEAN_MOTION_DDOT":0},{"OBJECT_NAME":"HULIANWANG DIGUI-64","OBJECT_ID":"2025-174G","EPOCH":"2026-07-18T06:52:46.125408","CLASSIFICATION_TYPE":"U","MEAN_MOTION":13.24407628,"ECCENTRICITY":0.00018389,"INCLINATION":86.4897,"RA_OF_ASC_NODE":241.3962,"ARG_OF_PERICENTER":104.6073,"MEAN_ANOMALY":255.5265,"EPHEMERIS_TYPE":0,"NORAD_CAT_ID":65170,"ELEMENT_SET_NO":999,"REV_AT_EPOCH":4490,"BSTAR":0.000084939554,"MEAN_MOTION_DOT":5.1e-7,"MEAN_MOTION_DDOT":0},{"OBJECT_NAME":"HULIANWANG DIGUI-65","OBJECT_ID":"2025-174H","EPOCH":"2026-07-18T07:14:27.178944","CLASSIFICATION_TYPE":"U","MEAN_MOTION":13.24407642,"ECCENTRICITY":0.0001724,"INCLINATION":86.4861,"RA_OF_ASC_NODE":241.283,"ARG_OF_PERICENTER":100.0422,"MEAN_ANOMALY":260.0906,"EPHEMERIS_TYPE":0,"NORAD_CAT_ID":65171,"ELEMENT_SET_NO":999,"REV_AT_EPOCH":4490,"BSTAR":0.000087321714,"MEAN_MOTION_DOT":5.2e-7,"MEAN_MOTION_DDOT":0},{"OBJECT_NAME":"HULIANWANG DIGUI-66","OBJECT_ID":"2025-174J","EPOCH":"2026-07-18T07:03:38.180160","CLASSIFICATION_TYPE":"U","MEAN_MOTION":13.24407302,"ECCENTRICITY":0.0001857,"INCLINATION":86.4896,"RA_OF_ASC_NODE":241.3975,"ARG_OF_PERICENTER":102.3498,"MEAN_ANOMALY":257.7844,"EPHEMERIS_TYPE":0,"NORAD_CAT_ID":65172,"ELEMENT_SET_NO":999,"REV_AT_EPOCH":4490,"BSTAR":0.000097669232,"MEAN_MOTION_DOT":5.7e-7,"MEAN_MOTION_DDOT":0},{"OBJECT_NAME":"HULIANWANG DIGUI-67","OBJECT_ID":"2025-174K","EPOCH":"2026-07-18T07:25:20.513280","CLASSIFICATION_TYPE":"U","MEAN_MOTION":13.24408823,"ECCENTRICITY":0.00018281,"INCLINATION":86.4908,"RA_OF_ASC_NODE":241.4411,"ARG_OF_PERICENTER":100.7347,"MEAN_ANOMALY":259.3993,"EPHEMERIS_TYPE":0,"NORAD_CAT_ID":65173,"ELEMENT_SET_NO":999,"REV_AT_EPOCH":4487,"BSTAR":0.00007019745,"MEAN_MOTION_DOT":4.5e-7,"MEAN_MOTION_DDOT":0},{"OBJECT_NAME":"HULIANWANG DIGUI-68","OBJECT_ID":"2025-178A","EPOCH":"2026-07-18T06:09:00.674784","CLASSIFICATION_TYPE":"U","MEAN_MOTION":13.24411295,"ECCENTRICITY":0.00019923,"INCLINATION":86.4992,"RA_OF_ASC_NODE":3.0348,"ARG_OF_PERICENTER":91.3106,"MEAN_ANOMALY":268.8257,"EPHEMERIS_TYPE":0,"NORAD_CAT_ID":65228,"ELEMENT_SET_NO":999,"REV_AT_EPOCH":4442,"BSTAR":0.00005758565,"MEAN_MOTION_DOT":3.9e-7,"MEAN_MOTION_DDOT":0},{"OBJECT_NAME":"HULIANWANG DIGUI-69","OBJECT_ID":"2025-178B","EPOCH":"2026-07-18T05:58:17.329152","CLASSIFICATION_TYPE":"U","MEAN_MOTION":13.24412691,"ECCENTRICITY":0.00019067,"INCLINATION":86.5012,"RA_OF_ASC_NODE":3.0983,"ARG_OF_PERICENTER":92.0314,"MEAN_ANOMALY":268.1038,"EPHEMERIS_TYPE":0,"NORAD_CAT_ID":65229,"ELEMENT_SET_NO":999,"REV_AT_EPOCH":4442,"BSTAR":0.000065293514,"MEAN_MOTION_DOT":4.3e-7,"MEAN_MOTION_DDOT":0},{"OBJECT_NAME":"HULIANWANG DIGUI-70","OBJECT_ID":"2025-178C","EPOCH":"2026-07-18T05:47:24.125280","CLASSIFICATION_TYPE":"U","MEAN_MOTION":13.24411789,"ECCENTRICITY":0.00019892,"INCLINATION":86.495,"RA_OF_ASC_NODE":2.8901,"ARG_OF_PERICENTER":89.7458,"MEAN_ANOMALY":270.3904,"EPHEMERIS_TYPE":0,"NORAD_CAT_ID":65230,"ELEMENT_SET_NO":999,"REV_AT_EPOCH":4442,"BSTAR":0.0000495515,"MEAN_MOTION_DOT":3.6e-7,"MEAN_MOTION_DDOT":0},{"OBJECT_NAME":"HULIANWANG DIGUI-71","OBJECT_ID":"2025-178D","EPOCH":"2026-07-18T05:36:32.859360","CLASSIFICATION_TYPE":"U","MEAN_MOTION":13.24411478,"ECCENTRICITY":0.00019716,"INCLINATION":86.5009,"RA_OF_ASC_NODE":3.0831,"ARG_OF_PERICENTER":90.4516,"MEAN_ANOMALY":269.6844,"EPHEMERIS_TYPE":0,"NORAD_CAT_ID":65231,"ELEMENT_SET_NO":999,"REV_AT_EPOCH":4442,"BSTAR":0.000009811832,"MEAN_MOTION_DOT":1.9e-7,"MEAN_MOTION_DDOT":0},{"OBJECT_NAME":"HULIANWANG DIGUI-72","OBJECT_ID":"2025-178E","EPOCH":"2026-07-18T07:14:27.639456","CLASSIFICATION_TYPE":"U","MEAN_MOTION":13.24410986,"ECCENTRICITY":0.0001975,"INCLINATION":86.4992,"RA_OF_ASC_NODE":2.9962,"ARG_OF_PERICENTER":90.5697,"MEAN_ANOMALY":269.5663,"EPHEMERIS_TYPE":0,"NORAD_CAT_ID":65232,"ELEMENT_SET_NO":999,"REV_AT_EPOCH":4443,"BSTAR":-0.000013039791,"MEAN_MOTION_DOT":9e-8,"MEAN_MOTION_DDOT":0},{"OBJECT_NAME":"HULIANWANG DIGUI-73","OBJECT_ID":"2025-187A","EPOCH":"2026-07-18T06:16:47.550144","CLASSIFICATION_TYPE":"U","MEAN_MOTION":13.29323627,"ECCENTRICITY":0.00000744,"INCLINATION":50.0054,"RA_OF_ASC_NODE":94.4333,"ARG_OF_PERICENTER":339.0224,"MEAN_ANOMALY":21.0645,"EPHEMERIS_TYPE":0,"NORAD_CAT_ID":65305,"ELEMENT_SET_NO":999,"REV_AT_EPOCH":4383,"BSTAR":0.000058859114,"MEAN_MOTION_DOT":-9.7e-7,"MEAN_MOTION_DDOT":0},{"OBJECT_NAME":"HULIANWANG DIGUI-74","OBJECT_ID":"2025-187B","EPOCH":"2026-07-18T05:52:52.340736","CLASSIFICATION_TYPE":"U","MEAN_MOTION":13.29321624,"ECCENTRICITY":0.00000872,"INCLINATION":50.0096,"RA_OF_ASC_NODE":94.4556,"ARG_OF_PERICENTER":323.3843,"MEAN_ANOMALY":36.7023,"EPHEMERIS_TYPE":0,"NORAD_CAT_ID":65306,"ELEMENT_SET_NO":999,"REV_AT_EPOCH":4383,"BSTAR":0.000060520332,"MEAN_MOTION_DOT":-9.6e-7,"MEAN_MOTION_DDOT":0},{"OBJECT_NAME":"HULIANWANG DIGUI-75","OBJECT_ID":"2025-187C","EPOCH":"2026-07-18T07:17:05.667648","CLASSIFICATION_TYPE":"U","MEAN_MOTION":13.2932284,"ECCENTRICITY":0.0000096,"INCLINATION":50.0088,"RA_OF_ASC_NODE":94.0795,"ARG_OF_PERICENTER":339.1877,"MEAN_ANOMALY":20.8991,"EPHEMERIS_TYPE":0,"NORAD_CAT_ID":65307,"ELEMENT_SET_NO":999,"REV_AT_EPOCH":4384,"BSTAR":0.000064288059,"MEAN_MOTION_DOT":-9.4e-7,"MEAN_MOTION_DDOT":0}]}
