HULIANWANG DIGUI-60     
1 65166U 25174C   26199.25643809  .00000013  00000+0 -48245-5 0  9999
2 65166  86.4936 241.5097 0001859 102.7382 257.3960 13.24407159 44901
HULIANWANG DIGUI-61     
1 65167U 25174D   26199.26401024  .00000015  00000+0  16187-5 0  9993
2 65167  86.4944 241.5408 0001682 101.4983 258.6340 13.24407784 44904
HULIANWANG DIGUI-62     
1 65168U 25174E   26199.27144397  .00000029  00000+0  33260-4 0  9997
2 65168  86.4885 241.3516 0001780 105.5950 254.5381 13.24409374 44902
HULIANWANG DIGUI-63     
1 65169U 25174F   26199.27893746  .00000035  00000+0  48233-4 0  9990
2 65169  86.4938 241.5269 0001669 105.5370 254.5948 13.24403656 44907
HULIANWANG DIGUI-64     
1 65170U 25174G   26199.28664497  .00000051  00000+0  84940-4 0  9995
2 65170  86.4897 241.3962 0001838 104.6073 255.5265 13.24407628 44905
HULIANWANG DIGUI-65     
1 65171U 25174H   26199.30170346  .00000052  00000+0  87322-4 0  9992
2 65171  86.4861 241.2830 0001724 100.0422 260.0906 13.24407642 44901
HULIANWANG DIGUI-66     
1 65172U 25174J   26199.29419190  .00000057  00000+0  97669-4 0  9994
2 65172  86.4896 241.3975 0001857 102.3498 257.7844 13.24407302 44903
HULIANWANG DIGUI-67     
1 65173U 25174K   26199.30926520  .00000045  00000+0  70197-4 0  9991
2 65173  86.4908 241.4411 0001828 100.7347 259.3993 13.24408823 44875
HULIANWANG DIGUI-68     
1 65228U 25178A   26199.25625781  .00000039  00000+0  57586-4 0  9995
2 65228  86.4992   3.0348 0001992  91.3106 268.8257 13.24411295 44426
HULIANWANG DIGUI-69     
1 65229U 25178B   26199.24881168  .00000043  00000+0  65294-4 0  9998
2 65229  86.5012   3.0983 0001906  92.0314 268.1038 13.24412691 44421
HULIANWANG DIGUI-70     
1 65230U 25178C   26199.24125145  .00000036  00000+0  49551-4 0  9996
2 65230  86.4950   2.8901 0001989  89.7458 270.3904 13.24411789 44427
HULIANWANG DIGUI-71     
1 65231U 25178D   26199.23371365  .00000019  00000+0  98118-5 0  9998
2 65231  86.5009   3.0831 0001971  90.4516 269.6844 13.24411478 44423
HULIANWANG DIGUI-72     
1 65232U 25178E   26199.30170879  .00000009  00000+0 -13040-4 0  9994
2 65232  86.4992   2.9962 0001975  90.5697 269.5663 13.24410986 44434
HULIANWANG DIGUI-73     
1 65305U 25187A   26199.26166146 -.00000097  00000+0  58859-4 0  9996
2 65305  50.0054  94.4333 0000074 339.0224  21.0645 13.29323627 43839
HULIANWANG DIGUI-74     
1 65306U 25187B   26199.24505024 -.00000096  00000+0  60520-4 0  9994
2 65306  50.0096  94.4556 0000087 323.3843  36.7023 13.29321624 43838
HULIANWANG DIGUI-75     
1 65307U 25187C   26199.30353782 -.00000094  00000+0  64288-4 0  9997
2 65307  50.0088  94.0795 0000096 339.1877  20.8991 13.29322840 43843
